{"fetched_at":"2026-07-14T17:41:11.323Z","source":"https://celestrak.org/NORAD/elements/gp.php?NAME=STRIX&FORMAT=JSON","constellation":"synspective","records":[{"OBJECT_NAME":"STRIX-1","OBJECT_ID":"2022-113A","EPOCH":"2026-07-14T03:25:52.799808","CLASSIFICATION_TYPE":"U","MEAN_MOTION":15.40974777,"ECCENTRICITY":0.0005455,"INCLINATION":97.4484,"RA_OF_ASC_NODE":257.6673,"ARG_OF_PERICENTER":134.8827,"MEAN_ANOMALY":225.2863,"EPHEMERIS_TYPE":0,"NORAD_CAT_ID":53815,"ELEMENT_SET_NO":999,"REV_AT_EPOCH":21159,"BSTAR":0.00038016,"MEAN_MOTION_DOT":0.00015596,"MEAN_MOTION_DDOT":0},{"OBJECT_NAME":"STRIX-3","OBJECT_ID":"2024-047A","EPOCH":"2026-07-14T04:13:57.620640","CLASSIFICATION_TYPE":"U","MEAN_MOTION":15.19800479,"ECCENTRICITY":0.0012105,"INCLINATION":97.6631,"RA_OF_ASC_NODE":171.2595,"ARG_OF_PERICENTER":338.6311,"MEAN_ANOMALY":21.4416,"EPHEMERIS_TYPE":0,"NORAD_CAT_ID":59224,"ELEMENT_SET_NO":999,"REV_AT_EPOCH":12884,"BSTAR":0.0002198,"MEAN_MOTION_DOT":0.00004643,"MEAN_MOTION_DDOT":0},{"OBJECT_NAME":"STRIX-4","OBJECT_ID":"2024-137A","EPOCH":"2026-07-14T04:40:14.685024","CLASSIFICATION_TYPE":"U","MEAN_MOTION":15.33292378,"ECCENTRICITY":0.0015996,"INCLINATION":43.015,"RA_OF_ASC_NODE":131.2633,"ARG_OF_PERICENTER":124.858,"MEAN_ANOMALY":235.378,"EPHEMERIS_TYPE":0,"NORAD_CAT_ID":60352,"ELEMENT_SET_NO":999,"REV_AT_EPOCH":10816,"BSTAR":0.00034431,"MEAN_MOTION_DOT":0.0001109,"MEAN_MOTION_DDOT":0},{"OBJECT_NAME":"STRIX-2","OBJECT_ID":"2024-248A","EPOCH":"2026-07-14T04:38:22.314048","CLASSIFICATION_TYPE":"U","MEAN_MOTION":15.09186113,"ECCENTRICITY":0.0013596,"INCLINATION":97.6298,"RA_OF_ASC_NODE":150.6834,"ARG_OF_PERICENTER":239.3559,"MEAN_ANOMALY":120.633,"EPHEMERIS_TYPE":0,"NORAD_CAT_ID":62406,"ELEMENT_SET_NO":999,"REV_AT_EPOCH":8566,"BSTAR":0.00016201,"MEAN_MOTION_DOT":0.00002514,"MEAN_MOTION_DDOT":0},{"OBJECT_NAME":"STRIX-6","OBJECT_ID":"2026-056A","EPOCH":"2026-07-14T00:53:20.380416","CLASSIFICATION_TYPE":"U","MEAN_MOTION":15.00325444,"ECCENTRICITY":0.0016626,"INCLINATION":50.2826,"RA_OF_ASC_NODE":222.8581,"ARG_OF_PERICENTER":346.6342,"MEAN_ANOMALY":13.4164,"EPHEMERIS_TYPE":0,"NORAD_CAT_ID":68291,"ELEMENT_SET_NO":999,"REV_AT_EPOCH":1730,"BSTAR":0.00010869,"MEAN_MOTION_DOT":0.00001114,"MEAN_MOTION_DDOT":0},{"OBJECT_NAME":"STRIX-7","OBJECT_ID":"2026-112A","EPOCH":"2026-07-14T01:13:02.518176","CLASSIFICATION_TYPE":"U","MEAN_MOTION":15.01603951,"ECCENTRICITY":0.0024577,"INCLINATION":44.9081,"RA_OF_ASC_NODE":51.3395,"ARG_OF_PERICENTER":201.4914,"MEAN_ANOMALY":158.4927,"EPHEMERIS_TYPE":0,"NORAD_CAT_ID":69177,"ELEMENT_SET_NO":999,"REV_AT_EPOCH":791,"BSTAR":0.00017529,"MEAN_MOTION_DOT":0.00002088,"MEAN_MOTION_DDOT":0},{"OBJECT_NAME":"STRIX-8","OBJECT_ID":"2026-146A","EPOCH":"2026-07-13T22:58:46.113024","CLASSIFICATION_TYPE":"U","MEAN_MOTION":15.04428336,"ECCENTRICITY":0.0007289,"INCLINATION":41.9902,"RA_OF_ASC_NODE":19.9493,"ARG_OF_PERICENTER":14.0458,"MEAN_ANOMALY":346.0571,"EPHEMERIS_TYPE":0,"NORAD_CAT_ID":69701,"ELEMENT_SET_NO":999,"REV_AT_EPOCH":259,"BSTAR":0.00019191,"MEAN_MOTION_DOT":0.00002538,"MEAN_MOTION_DDOT":0}]}
