STRIX-1                 
1 53815U 22113A   26195.14297222  .00015596  00000+0  38016-3 0  9999
2 53815  97.4484 257.6673 0005455 134.8827 225.2863 15.40974777211595
STRIX-3                 
1 59224U 24047A   26195.17636135  .00004643  00000+0  21980-3 0  9993
2 59224  97.6631 171.2595 0012105 338.6311  21.4416 15.19800479128845
STRIX-4                 
1 60352U 24137A   26195.19461441  .00011090  00000+0  34431-3 0  9994
2 60352  43.0150 131.2633 0015996 124.8580 235.3780 15.33292378108165
STRIX-2                 
1 62406U 24248A   26195.19331382  .00002514  00000+0  16201-3 0  9995
2 62406  97.6298 150.6834 0013596 239.3559 120.6330 15.09186113 85663
STRIX-6                 
1 68291U 26056A   26195.03704144  .00001114  00000+0  10869-3 0  9994
2 68291  50.2826 222.8581 0016626 346.6342  13.4164 15.00325444 17306
STRIX-7                 
1 69177U 26112A   26195.05072359  .00002088  00000+0  17529-3 0  9990
2 69177  44.9081  51.3395 0024577 201.4914 158.4927 15.01603951  7914
STRIX-8                 
1 69701U 26146A   26194.95747816  .00002538  00000+0  19191-3 0  9992
2 69701  41.9902  19.9493 0007289  14.0458 346.0571 15.04428336  2591
